STARLINK-30830          
1 58194U 23167V   26067.27905089 -.00000878  00000+0 -23033-4 0  9996
2 58194  43.0047 150.9804 0002253 291.0825  68.9786 15.26745059130779
FLOCK 4G-15             
1 62678U 25009BX  26068.71779869  .00012647  00000+0  47575-3 0  9991
2 62678  97.4054 151.1927 0003699 316.8208  43.2740 15.27266411121358
